      2.10          N: GNSS NAV DATA                        RINEX VERSION / TYPE
fic2rin                                 05/22/2018 00:11:23 PGM / RUN BY / DATE
                                                            END OF HEADER
23 18  5 21  8  0  0.0-2.168416976929e-04 4.547473508865e-13 0.000000000000e+00
    1.060000000000e+02 2.640625000000e+01 5.418439985489e-09 1.379485481039e+00
    1.521781086922e-06 1.250756764784e-02 7.815659046173e-06 5.153790927887e+03
    1.152000000000e+05-1.769512891769e-07-5.468747936103e-01 1.545995473862e-07
    9.436503111660e-01 2.255625000000e+02-2.363633659766e+00-8.518569118311e-09
    9.286101089098e-11 1.000000000000e+00 2.002000000000e+03 0.000000000000e+00
    2.400000000000e+00 0.000000000000e+00-2.002343535423e-08 1.060000000000e+02
    1.080060000000e+05 4.000000000000e+00
21 18  5 21  8  0  0.0-3.922777250409e-04 5.002220859751e-12 0.000000000000e+00
    1.020000000000e+02-7.715625000000e+01 4.997708174606e-09-1.284489027415e+00
   -3.464519977570e-06 2.440961066168e-02 6.321817636490e-06 5.153705072403e+03
    1.152000000000e+05-2.831220626831e-07-2.676272644858e+00 5.364418029785e-07
    9.439817016098e-01 2.510312500000e+02-1.557061296161e+00-8.581071721795e-09
    7.714607058635e-11 1.000000000000e+00 2.002000000000e+03 0.000000000000e+00
    3.400000000000e+00 0.000000000000e+00-1.024454832077e-08 1.020000000000e+02
    1.080060000000e+05 4.000000000000e+00
17 18  5 21  8  0  0.0-9.601423516870e-05 3.637978807092e-12 0.000000000000e+00
    8.800000000000e+01 2.931250000000e+01 3.921949079207e-09 2.577144635550e+00
    1.480802893639e-06 1.235425332561e-02 4.023313522339e-06 5.153561719894e+03
    1.152000000000e+05 7.264316082001e-08 2.659009224053e+00-9.685754776001e-08
    9.828388816759e-01 3.101250000000e+02-1.777850426904e+00-7.848184051225e-09
    2.239378993409e-10 1.000000000000e+00 2.002000000000e+03 0.000000000000e+00
    2.400000000000e+00 0.000000000000e+00-1.117587089539e-08 8.800000000000e+01
    1.080060000000e+05 4.000000000000e+00
18 18  5 21  8  0  0.0 1.170486211777e-05 4.774847184308e-12 0.000000000000e+00
    1.330000000000e+02-8.562500000000e+01 4.916276211209e-09 2.453498531776e-01
   -4.621222615242e-06 1.452523015905e-02 5.912035703659e-06 5.153658079147e+03
    1.152000000000e+05-2.216547727585e-07-2.669204781447e+00 8.754432201385e-08
    9.497375776623e-01 2.623125000000e+02 1.303874067109e+00-8.661075054255e-09
   -7.036007363663e-11 1.000000000000e+00 2.002000000000e+03 0.000000000000e+00
    3.400000000000e+00 0.000000000000e+00-6.984919309616e-09 1.330000000000e+02
    1.080060000000e+05 4.000000000000e+00
12 18  5 21  8  0  0.0 3.324206918478e-04-2.273736754432e-12 0.000000000000e+00
    9.300000000000e+01 6.143750000000e+01 3.811587339341e-09-7.643184647720e-01
    3.220513463020e-06 7.205924834125e-03 8.489936590195e-06 5.153593927383e+03
    1.152000000000e+05 3.911554813385e-08 1.624666980141e+00 1.415610313416e-07
    9.864521957049e-01 2.299375000000e+02 9.819392938501e-01-7.863184676061e-09
   -1.189335254873e-10 1.000000000000e+00 2.002000000000e+03 0.000000000000e+00
    3.400000000000e+00 0.000000000000e+00-1.257285475731e-08 9.300000000000e+01
    1.080060000000e+05 4.000000000000e+00
29 18  5 21  8  0  0.0 4.463829100132e-04-6.480149750132e-12 0.000000000000e+00
    1.040000000000e+02 1.312500000000e+01 3.963022218640e-09-2.567045516641e+00
    7.376074790955e-07 7.619807729498e-04 4.105269908905e-06 5.153696079254e+03
    1.152000000000e+05-3.166496753693e-08 2.669600598803e+00 7.450580596924e-09
    9.841209962468e-01 3.129062500000e+02 1.117832192918e+00-8.007119242942e-09
    1.571494030463e-10 1.000000000000e+00 2.002000000000e+03 0.000000000000e+00
    3.400000000000e+00 0.000000000000e+00-1.024454832077e-08 1.040000000000e+02
    1.080060000000e+05 4.000000000000e+00
27 18  5 21  8  0  0.0 3.685615956783e-04-9.094947017729e-13 0.000000000000e+00
    9.300000000000e+01 2.796875000000e+01 4.134457931054e-09 2.705665213085e+00
    1.482665538788e-06 5.943055264652e-03 3.755092620850e-06 5.153686399460e+03
    1.152000000000e+05-2.607703208923e-08 2.604996800779e+00-1.024454832077e-07
    9.775401470423e-01 3.167187500000e+02 4.182743656177e-01-8.147839390215e-09
    2.471531520637e-10 1.000000000000e+00 2.002000000000e+03 0.000000000000e+00
    3.400000000000e+00 0.000000000000e+00 1.396983861923e-09 9.300000000000e+01
    1.080060000000e+05 4.000000000000e+00
28 18  5 21  8  0  0.0 7.170112803578e-04 3.183231456205e-12 0.000000000000e+00
    9.700000000000e+01 7.318750000000e+01 3.534432937604e-09-2.701443645514e+00
    3.766268491745e-06 1.948158803862e-02 9.641051292419e-06 5.153685848236e+03
    1.152000000000e+05 1.825392246246e-07 1.647826564991e+00 1.303851604462e-08
    9.857508098722e-01 2.050937500000e+02-1.520687726748e+00-7.313161765399e-09
   -7.643175511796e-11 1.000000000000e+00 2.002000000000e+03 0.000000000000e+00
    4.850000000000e+00 0.000000000000e+00-1.117587089539e-08 9.700000000000e+01
    1.080060000000e+05 4.000000000000e+00
14 18  5 21  7 59 44.0-9.700236842036e-05-2.273736754432e-13 0.000000000000e+00
    1.000000000000e+00 2.359375000000e+01 4.839844456091e-09 2.319942089894e+00
    1.076608896255e-06 9.867714135908e-03 7.055699825287e-06 5.153580701828e+03
    1.151840000000e+05 4.284083843231e-08-4.555740031373e-01-1.601874828339e-07
    9.611811036568e-01 2.420937500000e+02-1.952511721539e+00-7.985689778890e-09
    3.607293115380e-11 1.000000000000e+00 2.002000000000e+03 0.000000000000e+00
    2.400000000000e+00 0.000000000000e+00-9.778887033463e-09 1.000000000000e+00
    1.114560000000e+05 4.000000000000e+00
12 18  5 21  7 59 44.0 3.324202261865e-04-2.387423592154e-12 0.000000000000e+00
    2.000000000000e+00 6.143750000000e+01 3.811587339341e-09-7.666526690638e-01
    3.220513463020e-06 7.205923087895e-03 8.489936590195e-06 5.153593927383e+03
    1.151840000000e+05 3.911554813385e-08 1.624667100100e+00 1.415610313416e-07
    9.864521810757e-01 2.299375000000e+02 9.819396888380e-01-7.862827518327e-09
   -1.185763677531e-10 1.000000000000e+00 2.002000000000e+03 0.000000000000e+00
    2.400000000000e+00 0.000000000000e+00-1.257285475731e-08 2.000000000000e+00
    1.117260000000e+05 4.000000000000e+00
27 18  5 21  7 59 44.0 3.685615956783e-04-1.023181539495e-12 0.000000000000e+00
    1.000000000000e+00 2.796875000000e+01 4.134457931054e-09 2.703331433039e+00
    1.482665538788e-06 5.943045835011e-03 3.755092620850e-06 5.153686405182e+03
    1.151840000000e+05-2.607703208923e-08 2.604996930978e+00-1.024454832077e-07
    9.775401499681e-01 3.167187500000e+02 4.182744124310e-01-8.147839390215e-09
    2.475103097979e-10 1.000000000000e+00 2.002000000000e+03 0.000000000000e+00
    2.400000000000e+00 0.000000000000e+00 1.396983861923e-09 1.000000000000e+00
    1.121160000000e+05 4.000000000000e+00
14 18  5 21  9 59 44.0-9.700423106551e-05-2.273736754432e-13 0.000000000000e+00
    2.000000000000e+00 2.950000000000e+01 4.876988860448e-09-2.913029008562e+00
    1.493841409683e-06 9.866905747913e-03 7.096678018570e-06 5.153582286835e+03
    1.223840000000e+05 2.272427082062e-07-4.556322111847e-01-1.043081283569e-07
    9.611814284246e-01 2.408750000000e+02-1.952485905424e+00-8.046406593704e-09
    1.460775132862e-10 1.000000000000e+00 2.002000000000e+03 0.000000000000e+00
    2.400000000000e+00 0.000000000000e+00-9.778887033463e-09 2.000000000000e+00
    1.152060000000e+05 4.000000000000e+00
12 18  5 21  9 59 44.0 3.324034623802e-04-2.387423592154e-12 0.000000000000e+00
    3.500000000000e+01 5.718750000000e+01 3.822302071366e-09 2.834530935420e-01
    3.041699528694e-06 7.205385016277e-03 9.022653102875e-06 5.153592544556e+03
    1.223840000000e+05-1.061707735062e-07 1.624610845048e+00 1.434236764908e-07
    9.864512989361e-01 2.189062500000e+02 9.820597797832e-01-7.824254483034e-09
   -1.850077063136e-10 1.000000000000e+00 2.002000000000e+03 0.000000000000e+00
    2.400000000000e+00 0.000000000000e+00-1.257285475731e-08 3.500000000000e+01
    1.152060000000e+05 4.000000000000e+00
27 18  5 21  9 59 44.0 3.685546107590e-04-1.023181539495e-12 0.000000000000e+00
    3.600000000000e+01 2.012500000000e+01 4.099099315368e-09-2.529704513650e+00
    1.106411218643e-06 5.944292759523e-03 4.041939973831e-06 5.153684062958e+03
    1.223840000000e+05 3.725290298462e-08 2.604939144251e+00 1.490116119385e-08
    9.775423048465e-01 3.121562500000e+02 4.182956949633e-01-8.024262814183e-09
    2.067943280995e-10 1.000000000000e+00 2.002000000000e+03 0.000000000000e+00
    2.400000000000e+00 0.000000000000e+00 1.396983861923e-09 3.600000000000e+01
    1.152060000000e+05 4.000000000000e+00
 1 18  5 21 10  0  0.0-4.954962059855e-05-2.955857780762e-12 0.000000000000e+00
    4.300000000000e+01-8.975000000000e+01 4.306965116671e-09 1.572113491420e+00
   -4.705041646957e-06 7.786865811795e-03 6.306916475296e-06 5.153673330307e+03
    1.224000000000e+05-1.285225152969e-07-2.622274331429e+00 1.303851604462e-07
    9.713501120139e-01 2.627812500000e+02 6.252202302693e-01-8.195698526598e-09
   -7.750322832055e-11 1.000000000000e+00 2.002000000000e+03 0.000000000000e+00
    2.400000000000e+00 0.000000000000e+00 5.587935447693e-09 4.300000000000e+01
    1.152060000000e+05 4.000000000000e+00
 2 18  5 21 10  0  0.0 1.091579906642e-04-1.114131009672e-11 0.000000000000e+00
    3.500000000000e+01-9.200000000000e+01 4.657336853917e-09 1.906228172432e+00
   -4.952773451805e-06 1.787897793110e-02 4.669651389122e-06 5.153743873596e+03
    1.224000000000e+05 4.097819328308e-08-2.683259004714e+00-3.986060619354e-07
    9.504358811266e-01 2.839375000000e+02-1.856707040787e+00-8.271415966247e-09
    2.464388365953e-11 1.000000000000e+00 2.002000000000e+03 0.000000000000e+00
    2.400000000000e+00 0.000000000000e+00-2.048909664154e-08 3.500000000000e+01
    1.152060000000e+05 4.000000000000e+00
